NUSAT-50 (NANCY ROMAN)  
1 60493U 24149AB  26068.80227738  .00012094  00000+0  42252-3 0  9994
2 60493  97.3817 150.7693 0002523 238.0469 122.0527 15.29713355 86930
STARLINK-35468          
1 66118U 25237E   26068.20822489  .00043009  00000+0  14561-2 0  9992
2 66118  53.1601  42.0915 0001192  74.2458 285.8674 15.30193843 22533
